[{"OBJECT_NAME":"STARLINK-1812","OBJECT_ID":"2020-088E","EPOCH":"2026-03-09T21:44:17.393568","MEAN_MOTION":15.15107348,"ECCENTRICITY":0.00027492,"INCLINATION":53.0793,"RA_OF_ASC_NODE":298.6686,"ARG_OF_PERICENTER":128.8313,"MEAN_ANOMALY":231.2926,"EPHEMERIS_TYPE":0,"CLASSIFICATION_TYPE":"U","NORAD_CAT_ID":47126,"ELEMENT_SET_NO":999,"REV_AT_EPOCH":29190,"BSTAR":0.0020820336,"MEAN_MOTION_DOT":0.00039367,"MEAN_MOTION_DDOT":0},{"OBJECT_NAME":"LEGION 5","OBJECT_ID":"2025-025A","EPOCH":"2026-03-09T11:28:56.213760","MEAN_MOTION":15.16166705,"ECCENTRICITY":0.00055523,"INCLINATION":45.0026,"RA_OF_ASC_NODE":115.8587,"ARG_OF_PERICENTER":288.7932,"MEAN_ANOMALY":71.2345,"EPHEMERIS_TYPE":0,"CLASSIFICATION_TYPE":"U","NORAD_CAT_ID":62900,"ELEMENT_SET_NO":999,"REV_AT_EPOCH":5936,"BSTAR":0.00030503594,"MEAN_MOTION_DOT":5.729e-5,"MEAN_MOTION_DDOT":0}]
